{
  "type": "FeatureCollection",
  "features": [
    {
      "type": "Feature",
      "properties": {
        "norad_id": 37238,
        "name": "INTELSAT 17 (IS-17)",
        "group": "intelsat",
        "lat": 0.021499847393065485,
        "lon": 7.754470776304936,
        "alt_km": 35788.627727652456,
        "timestamp": "2025-12-09T14:52:25.833748+00:00",
        "meta_object_name": "INTELSAT 17 (IS-17)",
        "meta_object_id": "2010-065B",
        "meta_epoch": "2025-12-09T03:36:51.318144",
        "meta_mean_motion": 1.00273452,
        "meta_eccentricity": 0.00024896,
        "meta_inclination": 0.0157,
        "meta_ra_of_asc_node": 282.9956,
        "meta_arg_of_pericenter": 338.0088,
        "meta_mean_anomaly": 297.3668,
        "meta_ephemeris_type": 0,
        "meta_classification_type": "U",
        "meta_norad_cat_id": 37238,
        "meta_element_set_no": 999,
        "meta_rev_at_epoch": 5134,
        "meta_bstar": 0,
        "meta_mean_motion_dot": 0,
        "meta_mean_motion_ddot": 0,
        "tle_line1": "1 37238U 10065B   25343.15059396  .00000000  00000+0  00000+0 0  9998",
        "tle_line2": "2 37238   0.0157 282.9956 0002489 338.0088 297.3668  1.00273452 51340"
      },
      "geometry": {
        "type": "Point",
        "coordinates": [
          7.754470776304936,
          0.021499847393065485
        ]
      }
    },
    {
      "type": "Feature",
      "properties": {
        "norad_id": 37392,
        "name": "INTELSAT 28 (IS-28)",
        "group": "intelsat",
        "lat": -0.1331080172459536,
        "lon": -89.98219244103012,
        "alt_km": 35769.19251483566,
        "timestamp": "2025-12-09T14:52:25.833760+00:00",
        "meta_object_name": "INTELSAT 28 (IS-28)",
        "meta_object_id": "2011-016A",
        "meta_epoch": "2025-12-09T04:51:44.145792",
        "meta_mean_motion": 1.00272248,
        "meta_eccentricity": 0.00039973,
        "meta_inclination": 1.3155,
        "meta_ra_of_asc_node": 85.0973,
        "meta_arg_of_pericenter": 178.3295,
        "meta_mean_anomaly": 216.0028,
        "meta_ephemeris_type": 0,
        "meta_classification_type": "U",
        "meta_norad_cat_id": 37392,
        "meta_element_set_no": 999,
        "meta_rev_at_epoch": 5138,
        "meta_bstar": 0,
        "meta_mean_motion_dot": -2.23e-06,
        "meta_mean_motion_ddot": 0,
        "tle_line1": "1 37392U 11016A   25343.20259428 -.00000223  00000+0  00000+0 0  9998",
        "tle_line2": "2 37392   1.3155  85.0973 0003997 178.3295 216.0028  1.00272248 51388"
      },
      "geometry": {
        "type": "Point",
        "coordinates": [
          -89.98219244103012,
          -0.1331080172459536
        ]
      }
    },
    {
      "type": "Feature",
      "properties": {
        "norad_id": 37834,
        "name": "INTELSAT 18 (IS-18)",
        "group": "intelsat",
        "lat": 0.02377588025260467,
        "lon": 121.69363839521355,
        "alt_km": 35793.08301709268,
        "timestamp": "2025-12-09T14:52:25.833771+00:00",
        "meta_object_name": "INTELSAT 18 (IS-18)",
        "meta_object_id": "2011-056A",
        "meta_epoch": "2025-12-09T04:12:38.575872",
        "meta_mean_motion": 1.00271228,
        "meta_eccentricity": 0.00020722,
        "meta_inclination": 0.0171,
        "meta_ra_of_asc_node": 340.7775,
        "meta_arg_of_pericenter": 282.5909,
        "meta_mean_anomaly": 57.9593,
        "meta_ephemeris_type": 0,
        "meta_classification_type": "U",
        "meta_norad_cat_id": 37834,
        "meta_element_set_no": 999,
        "meta_rev_at_epoch": 5190,
        "meta_bstar": 0,
        "meta_mean_motion_dot": 5.5e-07,
        "meta_mean_motion_ddot": 0,
        "tle_line1": "1 37834U 11056A   25343.17544648  .00000055  00000+0  00000+0 0  9992",
        "tle_line2": "2 37834   0.0171 340.7775 0002072 282.5909  57.9593  1.00271228 51901"
      },
      "geometry": {
        "type": "Point",
        "coordinates": [
          121.69363839521355,
          0.02377588025260467
        ]
      }
    },
    {
      "type": "Feature",
      "properties": {
        "norad_id": 38098,
        "name": "INTELSAT 22 (IS-22)",
        "group": "intelsat",
        "lat": 0.026754172279309946,
        "lon": 13.849738147414449,
        "alt_km": 35787.60507869603,
        "timestamp": "2025-12-09T14:52:25.833784+00:00",
        "meta_object_name": "INTELSAT 22 (IS-22)",
        "meta_object_id": "2012-011A",
        "meta_epoch": "2025-12-09T01:55:53.146272",
        "meta_mean_motion": 1.00274321,
        "meta_eccentricity": 0.00015486,
        "meta_inclination": 0.0174,
        "meta_ra_of_asc_node": 307.8083,
        "meta_arg_of_pericenter": 316.0442,
        "meta_mean_anomaly": 275.3111,
        "meta_ephemeris_type": 0,
        "meta_classification_type": "U",
        "meta_norad_cat_id": 38098,
        "meta_element_set_no": 999,
        "meta_rev_at_epoch": 528,
        "meta_bstar": 0,
        "meta_mean_motion_dot": -5.7e-07,
        "meta_mean_motion_ddot": 0,
        "tle_line1": "1 38098U 12011A   25343.08047623 -.00000057  00000+0  00000+0 0  9991",
        "tle_line2": "2 38098   0.0174 307.8083 0001548 316.0442 275.3111  1.00274321  5284"
      },
      "geometry": {
        "type": "Point",
        "coordinates": [
          13.849738147414449,
          0.026754172279309946
        ]
      }
    },
    {
      "type": "Feature",
      "properties": {
        "norad_id": 38356,
        "name": "INTELSAT 19 (IS-19)",
        "group": "intelsat",
        "lat": 0.023130545726161213,
        "lon": 107.70122571081184,
        "alt_km": 35800.00338874016,
        "timestamp": "2025-12-09T14:52:25.833796+00:00",
        "meta_object_name": "INTELSAT 19 (IS-19)",
        "meta_object_id": "2012-030A",
        "meta_epoch": "2025-12-09T04:32:38.741856",
        "meta_mean_motion": 1.0027164,
        "meta_eccentricity": 0.00035409,
        "meta_inclination": 0.0095,
        "meta_ra_of_asc_node": 336.8846,
        "meta_arg_of_pericenter": 288.7748,
        "meta_mean_anomaly": 46.6902,
        "meta_ephemeris_type": 0,
        "meta_classification_type": "U",
        "meta_norad_cat_id": 38356,
        "meta_element_set_no": 999,
        "meta_rev_at_epoch": 4854,
        "meta_bstar": 0,
        "meta_mean_motion_dot": -5.4e-07,
        "meta_mean_motion_ddot": 0,
        "tle_line1": "1 38356U 12030A   25343.18933729 -.00000054  00000+0  00000+0 0  9998",
        "tle_line2": "2 38356   0.0095 336.8846 0003540 288.7748  46.6902  1.00271640 48544"
      },
      "geometry": {
        "type": "Point",
        "coordinates": [
          107.70122571081184,
          0.023130545726161213
        ]
      }
    },
    {
      "type": "Feature",
      "properties": {
        "norad_id": 38740,
        "name": "INTELSAT 20 (IS-20)",
        "group": "intelsat",
        "lat": 0.00164757329732958,
        "lon": 10.217475429631195,
        "alt_km": 35799.47774331573,
        "timestamp": "2025-12-09T14:52:25.833808+00:00",
        "meta_object_name": "INTELSAT 20 (IS-20)",
        "meta_object_id": "2012-043A",
        "meta_epoch": "2025-12-09T03:37:36.247008",
        "meta_mean_motion": 1.00269877,
        "meta_eccentricity": 0.00031015,
        "meta_inclination": 0.001,
        "meta_ra_of_asc_node": 36.655,
        "meta_arg_of_pericenter": 144.7813,
        "meta_mean_anomaly": 19.6244,
        "meta_ephemeris_type": 0,
        "meta_classification_type": "U",
        "meta_norad_cat_id": 38740,
        "meta_element_set_no": 999,
        "meta_rev_at_epoch": 4884,
        "meta_bstar": 0,
        "meta_mean_motion_dot": -2.2e-07,
        "meta_mean_motion_ddot": 0,
        "tle_line1": "1 38740U 12043A   25343.15111397 -.00000022  00000+0  00000+0 0  9990",
        "tle_line2": "2 38740   0.0010  36.6550 0003101 144.7813  19.6244  1.00269877 48843"
      },
      "geometry": {
        "type": "Point",
        "coordinates": [
          10.217475429631195,
          0.00164757329732958
        ]
      }
    },
    {
      "type": "Feature",
      "properties": {
        "norad_id": 38749,
        "name": "INTELSAT 21 (IS-21)",
        "group": "intelsat",
        "lat": -0.0192334581899683,
        "lon": -116.2914994136968,
        "alt_km": 35777.50663229587,
        "timestamp": "2025-12-09T14:52:25.833819+00:00",
        "meta_object_name": "INTELSAT 21 (IS-21)",
        "meta_object_id": "2012-045A",
        "meta_epoch": "2025-12-09T06:26:57.820128",
        "meta_mean_motion": 1.00270453,
        "meta_eccentricity": 0.00021697,
        "meta_inclination": 0.0109,
        "meta_ra_of_asc_node": 34.5209,
        "meta_arg_of_pericenter": 220.8688,
        "meta_mean_anomaly": 221.6162,
        "meta_ephemeris_type": 0,
        "meta_classification_type": "U",
        "meta_norad_cat_id": 38749,
        "meta_element_set_no": 999,
        "meta_rev_at_epoch": 4862,
        "meta_bstar": 0,
        "meta_mean_motion_dot": -2.83e-06,
        "meta_mean_motion_ddot": 0,
        "tle_line1": "1 38749U 12045A   25343.26872477 -.00000283  00000+0  00000+0 0  9995",
        "tle_line2": "2 38749   0.0109  34.5209 0002169 220.8688 221.6162  1.00270453 48620"
      },
      "geometry": {
        "type": "Point",
        "coordinates": [
          -116.2914994136968,
          -0.0192334581899683
        ]
      }
    }
  ]
}